{
    "links": {
        "self": "http://www.neowsapp.com/rest/v1/neo/3728644?api_key=iIulBulltgU6a56xZRHN4H3l9WmuAYTsLGpBGhQ2"
    },
    "id": "3728644",
    "neo_reference_id": "3728644",
    "name": "(2015 ST6)",
    "designation": "2015 ST6",
    "nasa_jpl_url": "http://ssd.jpl.nasa.gov/sbdb.cgi?sstr=3728644",
    "absolute_magnitude_h": 24.4,
    "estimated_diameter": {
        "kilometers": {
            "estimated_diameter_min": 0.0350392641,
            "estimated_diameter_max": 0.0783501764
        },
        "meters": {
            "estimated_diameter_min": 35.0392641108,
            "estimated_diameter_max": 78.3501764334
        },
        "miles": {
            "estimated_diameter_min": 0.0217723826,
            "estimated_diameter_max": 0.0486845275
        },
        "feet": {
            "estimated_diameter_min": 114.9582192654,
            "estimated_diameter_max": 257.0543928497
        }
    },
    "is_potentially_hazardous_asteroid": false,
    "close_approach_data": [
        {
            "close_approach_date": "2015-09-29",
            "close_approach_date_full": "2015-Sep-29 03:28",
            "epoch_date_close_approach": 1443497280000,
            "relative_velocity": {
                "kilometers_per_second": "18.0990277587",
                "kilometers_per_hour": "65156.499931392",
                "miles_per_hour": "40485.7151934808"
            },
            "miss_distance": {
                "astronomical": "0.0265504868",
                "lunar": "10.3281393652",
                "kilometers": "3971896.272743116",
                "miles": "2468021.9001863608"
            },
            "orbiting_body": "Earth"
        }
    ],
    "orbital_data": {
        "orbit_id": "7",
        "orbit_determination_date": "2017-04-06 08:31:46",
        "first_observation_date": "2015-09-23",
        "last_observation_date": "2015-09-28",
        "data_arc_in_days": 5,
        "observations_used": 50,
        "orbit_uncertainty": "8",
        "minimum_orbit_intersection": ".0254042",
        "jupiter_tisserand_invariant": "3.360",
        "epoch_osculation": "2457289.5",
        "eccentricity": ".6151204529562223",
        "semi_major_axis": "2.150831257670697",
        "inclination": "21.81833133475347",
        "ascending_node_longitude": "182.3543804647755",
        "orbital_period": "1152.147113021341",
        "perihelion_distance": ".8278109602198966",
        "perihelion_argument": "242.3938403794805",
        "aphelion_distance": "3.473851555121498",
        "perihelion_time": "2457336.033999470985",
        "mean_anomaly": "345.4599819587064",
        "mean_motion": ".3124600981344747",
        "equinox": "J2000",
        "orbit_class": {
            "orbit_class_type": "APO",
            "orbit_class_description": "Near-Earth asteroid orbits which cross the Earth’s orbit similar to that of 1862 Apollo",
            "orbit_class_range": "a (semi-major axis) > 1.0 AU; q (perihelion) < 1.017 AU"
        }
    },
    "is_sentry_object": false
}